IRIDIUM 36              
1 24967U 97056C   24305.88518874  .00002085  00000+0  69478-3 0  9999
2 24967  86.3924 268.8589 0002513  84.0319 276.1165 14.37171343419426
IRIDIUM 39              
1 25042U 97069D   24305.53804747  .00003007  00000+0  79447-3 0  9999
2 25042  86.3871 309.1793 0017825 357.9068   2.2058 14.48533563416113
IRIDIUM 38              
1 25043U 97069E   24305.50006470  .00001788  00000+0  58903-3 0  9992
2 25043  86.3949 329.3980 0003923 108.8453 251.3171 14.37655880413099
IRIDIUM 42              
1 25077U 97077A   24305.36723524  .00001714  00000+0  58455-3 0  9999
2 25077  86.3965 335.3406 0002679 104.2503 255.8991 14.35926895408354
IRIDIUM 44              
1 25078U 97077B   24305.45077767  .00002042  00000+0  64551-3 0  9990
2 25078  86.3927 317.8378 0003985  76.9638 283.2005 14.39778258410784
IRIDIUM 45              
1 25104U 97082A   24305.58211490  .00032533  00000+0  15262-2 0  9995
2 25104  86.3666 157.8802 0145265 100.6068 261.1569 15.10529557417646
IRIDIUM 24              
1 25105U 97082B   24305.36858560  .00001910  00000+0  58048-3 0  9992
2 25105  86.3962 177.2659 0013271 109.3263 250.9373 14.41614807410497
IRIDIUM 51              
1 25262U 98018A   24305.61074138  .00046529  00000+0  17091-2 0  9992
2 25262  86.3950 167.2530 0126416  37.6887 323.3128 15.20438701412294
