<?xml version="1.0" encoding="UTF-8"?>
<ndm xmlns:xsi="http://www.w3.org/2001/XMLSchema-instance" xsi:noNamespaceSchemaLocation="https://sanaregistry.org/r/ndmxml_unqualified/ndmxml-2.0.0-master-2.0.xsd">
<omm id="CCSDS_OMM_VERS" version="2.0">
<header><CREATION_DATE/><ORIGINATOR/></header><body><segment><metadata><OBJECT_NAME>IRIDIUM 36</OBJECT_NAME><OBJECT_ID>1997-056C</OBJECT_ID><CENTER_NAME>EARTH</CENTER_NAME><REF_FRAME>TEME</REF_FRAME><TIME_SYSTEM>UTC</TIME_SYSTEM><MEAN_ELEMENT_THEORY>SGP4</MEAN_ELEMENT_THEORY></metadata><data><meanElements><EPOCH>2024-10-31T21:14:40.307136</EPOCH><MEAN_MOTION>14.37171343</MEAN_MOTION><ECCENTRICITY>.0002513</ECCENTRICITY><INCLINATION>86.3924</INCLINATION><RA_OF_ASC_NODE>268.8589</RA_OF_ASC_NODE><ARG_OF_PERICENTER>84.0319</ARG_OF_PERICENTER><MEAN_ANOMALY>276.1165</MEAN_ANOMALY></meanElements><tleParameters><EPHEMERIS_TYPE>0</EPHEMERIS_TYPE><CLASSIFICATION_TYPE>U</CLASSIFICATION_TYPE><NORAD_CAT_ID>24967</NORAD_CAT_ID><ELEMENT_SET_NO>999</ELEMENT_SET_NO><REV_AT_EPOCH>41942</REV_AT_EPOCH><BSTAR>.69478E-3</BSTAR><MEAN_MOTION_DOT>.2085E-4</MEAN_MOTION_DOT><MEAN_MOTION_DDOT>0</MEAN_MOTION_DDOT></tleParameters></data></segment></body></omm>
<omm id="CCSDS_OMM_VERS" version="2.0">
<header><CREATION_DATE/><ORIGINATOR/></header><body><segment><metadata><OBJECT_NAME>IRIDIUM 39</OBJECT_NAME><OBJECT_ID>1997-069D</OBJECT_ID><CENTER_NAME>EARTH</CENTER_NAME><REF_FRAME>TEME</REF_FRAME><TIME_SYSTEM>UTC</TIME_SYSTEM><MEAN_ELEMENT_THEORY>SGP4</MEAN_ELEMENT_THEORY></metadata><data><meanElements><EPOCH>2024-10-31T12:54:47.301408</EPOCH><MEAN_MOTION>14.48533563</MEAN_MOTION><ECCENTRICITY>.0017825</ECCENTRICITY><INCLINATION>86.3871</INCLINATION><RA_OF_ASC_NODE>309.1793</RA_OF_ASC_NODE><ARG_OF_PERICENTER>357.9068</ARG_OF_PERICENTER><MEAN_ANOMALY>2.2058</MEAN_ANOMALY></meanElements><tleParameters><EPHEMERIS_TYPE>0</EPHEMERIS_TYPE><CLASSIFICATION_TYPE>U</CLASSIFICATION_TYPE><NORAD_CAT_ID>25042</NORAD_CAT_ID><ELEMENT_SET_NO>999</ELEMENT_SET_NO><REV_AT_EPOCH>41611</REV_AT_EPOCH><BSTAR>.79447E-3</BSTAR><MEAN_MOTION_DOT>.3007E-4</MEAN_MOTION_DOT><MEAN_MOTION_DDOT>0</MEAN_MOTION_DDOT></tleParameters></data></segment></body></omm>
<omm id="CCSDS_OMM_VERS" version="2.0">
<header><CREATION_DATE/><ORIGINATOR/></header><body><segment><metadata><OBJECT_NAME>IRIDIUM 38</OBJECT_NAME><OBJECT_ID>1997-069E</OBJECT_ID><CENTER_NAME>EARTH</CENTER_NAME><REF_FRAME>TEME</REF_FRAME><TIME_SYSTEM>UTC</TIME_SYSTEM><MEAN_ELEMENT_THEORY>SGP4</MEAN_ELEMENT_THEORY></metadata><data><meanElements><EPOCH>2024-10-31T12:00:05.590080</EPOCH><MEAN_MOTION>14.37655880</MEAN_MOTION><ECCENTRICITY>.0003923</ECCENTRICITY><INCLINATION>86.3949</INCLINATION><RA_OF_ASC_NODE>329.3980</RA_OF_ASC_NODE><ARG_OF_PERICENTER>108.8453</ARG_OF_PERICENTER><MEAN_ANOMALY>251.3171</MEAN_ANOMALY></meanElements><tleParameters><EPHEMERIS_TYPE>0</EPHEMERIS_TYPE><CLASSIFICATION_TYPE>U</CLASSIFICATION_TYPE><NORAD_CAT_ID>25043</NORAD_CAT_ID><ELEMENT_SET_NO>999</ELEMENT_SET_NO><REV_AT_EPOCH>41309</REV_AT_EPOCH><BSTAR>.58903E-3</BSTAR><MEAN_MOTION_DOT>.1788E-4</MEAN_MOTION_DOT><MEAN_MOTION_DDOT>0</MEAN_MOTION_DDOT></tleParameters></data></segment></body></omm>
<omm id="CCSDS_OMM_VERS" version="2.0">
<header><CREATION_DATE/><ORIGINATOR/></header><body><segment><metadata><OBJECT_NAME>IRIDIUM 42</OBJECT_NAME><OBJECT_ID>1997-077A</OBJECT_ID><CENTER_NAME>EARTH</CENTER_NAME><REF_FRAME>TEME</REF_FRAME><TIME_SYSTEM>UTC</TIME_SYSTEM><MEAN_ELEMENT_THEORY>SGP4</MEAN_ELEMENT_THEORY></metadata><data><meanElements><EPOCH>2024-10-31T08:48:49.124736</EPOCH><MEAN_MOTION>14.35926895</MEAN_MOTION><ECCENTRICITY>.0002679</ECCENTRICITY><INCLINATION>86.3965</INCLINATION><RA_OF_ASC_NODE>335.3406</RA_OF_ASC_NODE><ARG_OF_PERICENTER>104.2503</ARG_OF_PERICENTER><MEAN_ANOMALY>255.8991</MEAN_ANOMALY></meanElements><tleParameters><EPHEMERIS_TYPE>0</EPHEMERIS_TYPE><CLASSIFICATION_TYPE>U</CLASSIFICATION_TYPE><NORAD_CAT_ID>25077</NORAD_CAT_ID><ELEMENT_SET_NO>999</ELEMENT_SET_NO><REV_AT_EPOCH>40835</REV_AT_EPOCH><BSTAR>.58455E-3</BSTAR><MEAN_MOTION_DOT>.1714E-4</MEAN_MOTION_DOT><MEAN_MOTION_DDOT>0</MEAN_MOTION_DDOT></tleParameters></data></segment></body></omm>
<omm id="CCSDS_OMM_VERS" version="2.0">
<header><CREATION_DATE/><ORIGINATOR/></header><body><segment><metadata><OBJECT_NAME>IRIDIUM 44</OBJECT_NAME><OBJECT_ID>1997-077B</OBJECT_ID><CENTER_NAME>EARTH</CENTER_NAME><REF_FRAME>TEME</REF_FRAME><TIME_SYSTEM>UTC</TIME_SYSTEM><MEAN_ELEMENT_THEORY>SGP4</MEAN_ELEMENT_THEORY></metadata><data><meanElements><EPOCH>2024-10-31T10:49:07.190688</EPOCH><MEAN_MOTION>14.39778258</MEAN_MOTION><ECCENTRICITY>.0003985</ECCENTRICITY><INCLINATION>86.3927</INCLINATION><RA_OF_ASC_NODE>317.8378</RA_OF_ASC_NODE><ARG_OF_PERICENTER>76.9638</ARG_OF_PERICENTER><MEAN_ANOMALY>283.2005</MEAN_ANOMALY></meanElements><tleParameters><EPHEMERIS_TYPE>0</EPHEMERIS_TYPE><CLASSIFICATION_TYPE>U</CLASSIFICATION_TYPE><NORAD_CAT_ID>25078</NORAD_CAT_ID><ELEMENT_SET_NO>999</ELEMENT_SET_NO><REV_AT_EPOCH>41078</REV_AT_EPOCH><BSTAR>.64551E-3</BSTAR><MEAN_MOTION_DOT>.2042E-4</MEAN_MOTION_DOT><MEAN_MOTION_DDOT>0</MEAN_MOTION_DDOT></tleParameters></data></segment></body></omm>
<omm id="CCSDS_OMM_VERS" version="2.0">
<header><CREATION_DATE/><ORIGINATOR/></header><body><segment><metadata><OBJECT_NAME>IRIDIUM 45</OBJECT_NAME><OBJECT_ID>1997-082A</OBJECT_ID><CENTER_NAME>EARTH</CENTER_NAME><REF_FRAME>TEME</REF_FRAME><TIME_SYSTEM>UTC</TIME_SYSTEM><MEAN_ELEMENT_THEORY>SGP4</MEAN_ELEMENT_THEORY></metadata><data><meanElements><EPOCH>2024-10-31T13:58:14.727360</EPOCH><MEAN_MOTION>15.10529557</MEAN_MOTION><ECCENTRICITY>.0145265</ECCENTRICITY><INCLINATION>86.3666</INCLINATION><RA_OF_ASC_NODE>157.8802</RA_OF_ASC_NODE><ARG_OF_PERICENTER>100.6068</ARG_OF_PERICENTER><MEAN_ANOMALY>261.1569</MEAN_ANOMALY></meanElements><tleParameters><EPHEMERIS_TYPE>0</EPHEMERIS_TYPE><CLASSIFICATION_TYPE>U</CLASSIFICATION_TYPE><NORAD_CAT_ID>25104</NORAD_CAT_ID><ELEMENT_SET_NO>999</ELEMENT_SET_NO><REV_AT_EPOCH>41764</REV_AT_EPOCH><BSTAR>.15262E-2</BSTAR><MEAN_MOTION_DOT>.32533E-3</MEAN_MOTION_DOT><MEAN_MOTION_DDOT>0</MEAN_MOTION_DDOT></tleParameters></data></segment></body></omm>
<omm id="CCSDS_OMM_VERS" version="2.0">
<header><CREATION_DATE/><ORIGINATOR/></header><body><segment><metadata><OBJECT_NAME>IRIDIUM 24</OBJECT_NAME><OBJECT_ID>1997-082B</OBJECT_ID><CENTER_NAME>EARTH</CENTER_NAME><REF_FRAME>TEME</REF_FRAME><TIME_SYSTEM>UTC</TIME_SYSTEM><MEAN_ELEMENT_THEORY>SGP4</MEAN_ELEMENT_THEORY></metadata><data><meanElements><EPOCH>2024-10-31T08:50:45.795840</EPOCH><MEAN_MOTION>14.41614807</MEAN_MOTION><ECCENTRICITY>.0013271</ECCENTRICITY><INCLINATION>86.3962</INCLINATION><RA_OF_ASC_NODE>177.2659</RA_OF_ASC_NODE><ARG_OF_PERICENTER>109.3263</ARG_OF_PERICENTER><MEAN_ANOMALY>250.9373</MEAN_ANOMALY></meanElements><tleParameters><EPHEMERIS_TYPE>0</EPHEMERIS_TYPE><CLASSIFICATION_TYPE>U</CLASSIFICATION_TYPE><NORAD_CAT_ID>25105</NORAD_CAT_ID><ELEMENT_SET_NO>999</ELEMENT_SET_NO><REV_AT_EPOCH>41049</REV_AT_EPOCH><BSTAR>.58048E-3</BSTAR><MEAN_MOTION_DOT>.191E-4</MEAN_MOTION_DOT><MEAN_MOTION_DDOT>0</MEAN_MOTION_DDOT></tleParameters></data></segment></body></omm>
<omm id="CCSDS_OMM_VERS" version="2.0">
<header><CREATION_DATE/><ORIGINATOR/></header><body><segment><metadata><OBJECT_NAME>IRIDIUM 51</OBJECT_NAME><OBJECT_ID>1998-018A</OBJECT_ID><CENTER_NAME>EARTH</CENTER_NAME><REF_FRAME>TEME</REF_FRAME><TIME_SYSTEM>UTC</TIME_SYSTEM><MEAN_ELEMENT_THEORY>SGP4</MEAN_ELEMENT_THEORY></metadata><data><meanElements><EPOCH>2024-10-31T14:39:28.055232</EPOCH><MEAN_MOTION>15.20438701</MEAN_MOTION><ECCENTRICITY>.0126416</ECCENTRICITY><INCLINATION>86.3950</INCLINATION><RA_OF_ASC_NODE>167.2530</RA_OF_ASC_NODE><ARG_OF_PERICENTER>37.6887</ARG_OF_PERICENTER><MEAN_ANOMALY>323.3128</MEAN_ANOMALY></meanElements><tleParameters><EPHEMERIS_TYPE>0</EPHEMERIS_TYPE><CLASSIFICATION_TYPE>U</CLASSIFICATION_TYPE><NORAD_CAT_ID>25262</NORAD_CAT_ID><ELEMENT_SET_NO>999</ELEMENT_SET_NO><REV_AT_EPOCH>41229</REV_AT_EPOCH><BSTAR>.17091E-2</BSTAR><MEAN_MOTION_DOT>.46529E-3</MEAN_MOTION_DOT><MEAN_MOTION_DDOT>0</MEAN_MOTION_DDOT></tleParameters></data></segment></body></omm>

</ndm>
